H1 CPF  1  DLR 2022 06 02 10  6532 technosat            
H2  1704205 6203    42829 2022 06 02 00 00 00 2022 06 09 00 00 00    60 1 1  0 0 0
H9
10 0 59732      0.000000  0      -1840945.706       4832341.807       4653929.330
10 0 59732     60.000000  0      -1636537.188       4577196.249       4975945.051
10 0 59732    120.000000  0      -1427526.684       4300865.073       5276743.371
10 0 59732    180.000000  0      -1214980.123       4004484.923       5555044.765
10 0 59732    240.000000  0       -999967.910       3689286.690       5809666.440
10 0 59732    300.000000  0       -783559.509       3356590.099       6039527.307
10 0 59732    360.000000  0       -566818.085       3007797.892       6243652.438
10 0 59732    420.000000  0       -350795.293       2644389.683       6421177.027
10 0 59732    480.000000  0       -136526.189       2267915.526       6571349.917
10 0 59732    540.000000  0         74975.761       1879989.121       6693536.711
10 0 59732    600.000000  0        282723.504       1482280.666       6787222.300
10 0 59732    660.000000  0        485761.009       1076509.509       6852012.830
10 0 59732    720.000000  0        683167.665        664436.646       6887637.195
10 0 59732    780.000000  0        874062.452        247857.046       6893948.095
10 0 59732    840.000000  0       1057607.879       -171408.237       6870922.624
10 0 59732    900.000000  0       1233013.660       -591520.127       6818662.347
10 0 59732    960.000000  0       1399540.148      -1010629.704       6737392.780
10 0 59732   1020.000000  0       1556501.464      -1426886.341       6627462.387
10 0 59732   1080.000000  0       1703268.340      -1838445.944       6489341.185
10 0 59732   1140.000000  0       1839270.660      -2243479.252       6323618.767
10 0 59732   1200.000000  0       1963999.692      -2640180.046       6131001.830
10 0 59732   1260.000000  0       2077009.999      -3026773.331       5912311.254
10 0 59732   1320.000000  0       2177921.017      -3401523.419       5668478.620
10 0 59732   1380.000000  0       2266418.279      -3762741.822       5400542.287
10 0 59732   1440.000000  0       2342254.297      -4108794.976       5109643.044
10 0 59732   1500.000000  0       2405249.117      -4438111.779       4797019.348
10 0 59732   1560.000000  0       2455290.588      -4749190.935       4464002.116
10 0 59732   1620.000000  0       2492334.289      -5040608.019       4112009.036
10 0 59732   1680.000000  0       2516403.032      -5311022.181       3742538.478
10 0 59732   1740.000000  0       2527585.994      -5559182.515       3357163.089
10 0 59732   1800.000000  0       2526037.547      -5783934.070       2957523.024
10 0 59732   1860.000000  0       2511975.742      -5984223.376       2545318.800
10 0 59732   1920.000000  0       2485680.469      -6159103.479       2122303.897
10 0 59732   1980.000000  0       2447491.300      -6307738.431       1690277.145
10 0 59732   2040.000000  0       2397805.085      -6429407.371       1251074.984
10 0 59732   2100.000000  0       2337073.198      -6523508.099        806563.450
10 0 59732   2160.000000  0       2265798.530      -6589560.094        358630.082
10 0 59732   2220.000000  0       2184532.258      -6627206.930        -90824.373
10 0 59732   2280.000000  0       2093870.364      -6636218.077       -539894.316
10 0 59732   2340.000000  0       1994449.861      -6616490.040       -986677.673
10 0 59732   2400.000000  0       1886944.798      -6568046.792      -1429284.127
10 0 59732   2460.000000  0       1772062.212      -6491039.691      -1865843.129
10 0 59732   2520.000000  0       1650537.939      -6385746.999      -2294511.970
10 0 59732   2580.000000  0       1523132.176      -6252572.468      -2713483.813
10 0 59732   2640.000000  0       1390625.130      -6092043.273      -3120995.184
10 0 59732   2700.000000  0       1253812.634      -5904807.631      -3515333.287
10 0 59732   2760.000000  0       1113501.681      -5691631.858      -3894843.128
10 0 59732   2820.000000  0        970505.956      -5453396.842      -4257934.319
10 0 59732   2880.000000  0        825641.393      -5191094.048      -4603087.512
10 0 59732   2940.000000  0        679721.791      -4905821.060      -4928860.475
10 0 59732   3000.000000  0        533554.509      -4598776.721      -5233893.818
10 0 59732   3060.000000  0        387936.252      -4271255.838      -5516916.361
10 0 59732   3120.000000  0        243648.966      -3924643.484      -5776750.067
10 0 59732   3180.000000  0        101455.876      -3560408.980      -6012314.556
10 0 59732   3240.000000  0        -37902.324      -3180099.572      -6222631.209
10 0 59732   3300.000000  0       -173711.105      -2785333.809      -6406826.861
10 0 59732   3360.000000  0       -305285.580      -2377794.673      -6564137.064
10 0 59732   3420.000000  0       -431973.766      -1959222.474      -6693908.904
10 0 59732   3480.000000  0       -553159.650      -1531407.584      -6795603.425
10 0 59732   3540.000000  0       -668266.026      -1096182.953      -6868797.673
10 0 59732   3600.000000  0       -776757.108       -655416.434      -6913186.273
10 0 59732   3660.000000  0       -878140.921       -211002.989      -6928582.533
10 0 59732   3720.000000  0       -971971.455        235143.146      -6914919.114
10 0 59732   3780.000000  0      -1057850.583        681096.360      -6872248.358
10 0 59732   3840.000000  0      -1135429.705       1124927.739      -6800742.213
10 0 59732   3900.000000  0      -1204411.154       1564713.150      -6700691.610
10 0 59732   3960.000000  0      -1264549.321       1998541.247      -6572505.485
10 0 59732   4020.000000  0      -1315651.524       2424521.555      -6416709.463
10 0 59732   4080.000000  0      -1357578.619       2840792.583      -6233944.094
10 0 59732   4140.000000  0      -1390245.371       3245529.900      -6024962.540
10 0 59732   4200.000000  0      -1413620.495       3636954.038      -5790627.834
10 0 59732   4260.000000  0      -1427726.431       4013338.300      -5531909.777
10 0 59732   4320.000000  0      -1432638.873       4373016.484      -5249881.381
10 0 59732   4380.000000  0      -1428486.022       4714390.438      -4945714.833
10 0 59732   4440.000000  0      -1415447.554       5035937.379      -4620676.996
10 0 59732   4500.000000  0      -1393753.319       5336216.949      -4276124.474
10 0 59732   4560.000000  0      -1363681.751       5613877.964      -3913498.266
10 0 59732   4620.000000  0      -1325558.012       5867664.823      -3534318.011
10 0 59732   4680.000000  0      -1279751.886       6096423.532      -3140175.882
10 0 59732   4740.000000  0      -1226675.433       6299107.398      -2732730.138
10 0 59732   4800.000000  0      -1166780.387       6474782.320      -2313698.249
10 0 59732   4860.000000  0      -1100555.328       6622631.509      -1884849.641
10 0 59732   4920.000000  0      -1028522.651       6741959.648      -1447998.229
10 0 59732   4980.000000  0       -951235.351       6832196.581      -1004994.726
10 0 59732   5040.000000  0       -869273.596       6892900.475       -557718.684
10 0 59732   5100.000000  0       -783241.135       6923760.346       -108070.308
10 0 59732   5160.000000  0       -693761.579       6924597.965        342037.874
10 0 59732   5220.000000  0       -601474.574       6895369.105        790689.497
10 0 59732   5280.000000  0       -507031.878       6836164.057       1235972.914
10 0 59732   5340.000000  0       -411093.375       6747207.421       1675989.710
10 0 59732   5400.000000  0       -314323.064       6628857.209       2108863.096
10 0 59732   5460.000000  0       -217385.041       6481603.356       2532746.168
10 0 59732   5520.000000  0       -120939.490       6306065.633       2945830.053
10 0 59732   5580.000000  0        -25638.704       6102990.860       3346351.918
10 0 59732   5640.000000  0         67876.821       5873249.575       3732602.602
10 0 59732   5700.000000  0        158982.214       5617832.341       4102934.218
10 0 59732   5760.000000  0        247071.951       5337845.112       4455767.668
10 0 59732   5820.000000  0        331563.479       5034503.804       4789599.580
10 0 59732   5880.000000  0        411900.659       4709128.461       5103008.449
10 0 59732   5940.000000  0        487556.991       4363137.409       5394660.542
10 0 59732   6000.000000  0        558038.736       3998040.885       5663315.670
10 0 59732   6060.000000  0        622887.817       3615434.091       5907832.511
10 0 59732   6120.000000  0        681684.430       3216989.854       6127173.353
10 0 59732   6180.000000  0        734049.423       2804451.035       6320408.340
10 0 59732   6240.000000  0        779646.468       2379622.688       6486719.284
10 0 59732   6300.000000  0        818183.968       1944363.947       6625403.014
10 0 59732   6360.000000  0        849416.700       1500579.641       6735874.214
10 0 59732   6420.000000  0        873147.187       1050211.799       6817667.678
10 0 59732   6480.000000  0        889226.789        595231.064       6870440.105
10 0 59732   6540.000000  0        897556.538        137628.052       6893971.433
10 0 59732   6600.000000  0        898087.658       -320595.421       6888165.774
10 0 59732   6660.000000  0        890821.799       -777435.259       6853051.765
10 0 59732   6720.000000  0        875811.021      -1230893.923       6788782.336
10 0 59732   6780.000000  0        853157.441      -1678989.216       6695634.053
10 0 59732   6840.000000  0        823012.614      -2119763.027       6574005.941
10 0 59732   6900.000000  0        785576.670      -2551290.002       6424417.849
10 0 59732   6960.000000  0        741097.103      -2971686.160       6247508.221
10 0 59732   7020.000000  0        689867.286      -3379117.159       6044031.249
10 0 59732   7080.000000  0        632224.800      -3771806.308       5814853.747
10 0 59732   7140.000000  0        568549.496      -4148042.440       5560951.560
99
